$$SOE
2460714.500000000, A.D. 2025-Feb-08 00:00:00.0000, 2.602027908680215E+08, -3.838347969089513E+08, 3.482266988600884E+07,
2460721.500000000, A.D. 2025-Feb-15 00:00:00.0000, 2.681224938630414E+08, -3.774201426980771E+08, 3.622611732177000E+07,
2460728.500000000, A.D. 2025-Feb-22 00:00:00.0000, 2.759122230766088E+08, -3.708225964275019E+08, 3.761200292093061E+07,
2460735.500000000, A.D. 2025-Mar-01 00:00:00.0000, 2.835676478235108E+08, -3.640446075742397E+08, 3.897957877928062E+07,
2460742.500000000, A.D. 2025-Mar-08 00:00:00.0000, 2.910844718606631E+08, -3.570887394606431E+08, 4.032810008142580E+07,
2460749.500000000, A.D. 2025-Mar-15 00:00:00.0000, 2.984584365339178E+08, -3.499576677018411E+08, 4.165682576401442E+07,
2460756.500000000, A.D. 2025-Mar-22 00:00:00.0000, 3.056853217755839E+08, -3.426541799718230E+08, 4.296501927887157E+07,
2460763.500000000, A.D. 2025-Mar-29 00:00:00.0000, 3.127609485267875E+08, -3.351811779243656E+08, 4.425194905815940E+07,
2460770.500000000, A.D. 2025-Apr-05 00:00:00.0000, 3.196811829076044E+08, -3.275416781255618E+08, 4.551688890747599E+07,
2460777.500000000, A.D. 2025-Apr-12 00:00:00.0000, 3.264419402065176E+08, -3.197388118899431E+08, 4.675911851146661E+07,
2460784.500000000, A.D. 2025-Apr-19 00:00:00.0000, 3.330391884988302E+08, -3.117758248974273E+08, 4.797792399643235E+07,
2460791.500000000, A.D. 2025-Apr-26 00:00:00.0000, 3.394689521621613E+08, -3.036560767898053E+08, 4.917259850770494E+07,
2460798.500000000, A.D. 2025-May-03 00:00:00.0000, 3.457273153989438E+08, -2.953830407233450E+08, 5.034244279221670E+07,
2460805.500000000, A.D. 2025-May-10 00:00:00.0000, 3.518104257904195E+08, -2.869603028647974E+08, 5.148676578363520E+07,
2460812.500000000, A.D. 2025-May-17 00:00:00.0000, 3.577144979142434E+08, -2.783915618678462E+08, 5.260488518253651E+07,
2460819.500000000, A.D. 2025-May-24 00:00:00.0000, 3.634358171946301E+08, -2.696806283802162E+08, 5.369612801029050E+07,
2460826.500000000, A.D. 2025-May-31 00:00:00.0000, 3.689707443982972E+08, -2.608314242662088E+08, 5.475983112300222E+07,
2460833.500000000, A.D. 2025-Jun-07 00:00:00.0000, 3.743157203714260E+08, -2.518479803370525E+08, 5.579534182050475E+07,
2460840.500000000, A.D. 2025-Jun-14 00:00:00.0000, 3.794672686479933E+08, -2.427344332547702E+08, 5.680201871253450E+07,
2460847.500000000, A.D. 2025-Jun-21 00:00:00.0000, 3.844219971381990E+08, -2.334950248787510E+08, 5.777923246190463E+07,
2460854.500000000, A.D. 2025-Jun-28 00:00:00.0000, 3.891766020165461E+08, -2.241341022861287E+08, 5.872636626011517E+07,
2460861.500000000, A.D. 2025-Jul-05 00:00:00.0000, 3.937278722856610E+08, -2.146561163052279E+08, 5.964281634915174E+07,
2460868.500000000, A.D. 2025-Jul-12 00:00:00.0000, 3.980726938186702E+08, -2.050656193637848E+08, 6.052799263161494E+07,
2460875.500000000, A.D. 2025-Jul-19 00:00:00.0000, 4.022080530643316E+08, -1.953672632241345E+08, 6.138131930390874E+07,
2460882.500000000, A.D. 2025-Jul-26 00:00:00.0000, 4.061310406199459E+08, -1.855657966604165E+08, 6.220223548817965E+07,
2460889.500000000, A.D. 2025-Aug-02 00:00:00.0000, 4.098388547321255E+08, -1.756660630560375E+08, 6.299019585855062E+07,
2460896.500000000, A.D. 2025-Aug-09 00:00:00.0000, 4.133288047424371E+08, -1.656729979367714E+08, 6.374467125791740E+07,
2460903.500000000, A.D. 2025-Aug-16 00:00:00.0000, 4.165983145470315E+08, -1.555916265036866E+08, 6.446514929223123E+07,
2460910.500000000, A.D. 2025-Aug-23 00:00:00.0000, 4.196449263536813E+08, -1.454270611498366E+08, 6.515113487533019E+07,
2460917.500000000, A.D. 2025-Aug-30 00:00:00.0000, 4.224663050559382E+08, -1.351844982460632E+08, 6.580215075090201E+07,
2460924.500000000, A.D. 2025-Sep-06 00:00:00.0000, 4.250602417989443E+08, -1.248692131956067E+08, 6.641773820249318E+07,
2460931.500000000, A.D. 2025-Sep-13 00:00:00.0000, 4.274246550589466E+08, -1.144865562425837E+08, 6.699745790110625E+07,
2460938.500000000, A.D. 2025-Sep-20 00:00:00.0000, 4.295575925000518E+08, -1.040419506806167E+08, 6.754089045396306E+07,
2460945.500000000, A.D. 2025-Sep-27 00:00:00.0000, 4.314572346573681E+08, -9.354089035045503E+07, 6.804763680979018E+07,
2460952.500000000, A.D. 2025-Oct-04 00:00:00.0000, 4.331218984225264E+08, -8.298893588864926E+07, 6.851731874856402E+07,
2460959.500000000, A.D. 2025-Oct-11 00:00:00.0000, 4.345500399512111E+08, -7.239171067297085E+07, 6.894957941204742E+07,
2460966.500000000, A.D. 2025-Oct-18 00:00:00.0000, 4.357402572695384E+08, -6.175489674251281E+07, 6.934408382573180E+07,
2460973.500000000, A.D. 2025-Oct-25 00:00:00.0000, 4.366912927118548E+08, -5.108423068558392E+07, 6.970051939923967E+07,
2460980.500000000, A.D. 2025-Nov-01 00:00:00.0000, 4.374020352223876E+08, -4.038549948452793E+07, 7.001859640168862E+07,
2460987.500000000, A.D. 2025-Nov-08 00:00:00.0000, 4.378715225483293E+08, -2.966453635403230E+07, 7.029804840504014E+07,
2460994.500000000, A.D. 2025-Nov-15 00:00:00.0000, 4.380989434650804E+08, -1.892721663732588E+07, 7.053863267564653E+07,
2461001.500000000, A.D. 2025-Nov-22 00:00:00.0000, 4.380836404283275E+08, -8.179453546364162E+06, 7.074013049315500E+07,
2461008.500000000, A.D. 2025-Nov-29 00:00:00.0000, 4.378251124914804E+08, 2.572807383802321E+06, 7.090234750161898E+07,
2461015.500000000, A.D. 2025-Dec-06 00:00:00.0000, 4.373230162057741E+08, 1.332359498543974E+07, 7.102511428980464E+07,
2461022.500000000, A.D. 2025-Dec-13 00:00:00.0000, 4.365771649329562E+08, 2.406691691500806E+07, 7.110828688497184E+07,
2461029.500000000, A.D. 2025-Dec-20 00:00:00.0000, 4.355875300570252E+08, 3.479676289098756E+07, 7.115174692161173E+07,
2461036.500000000, A.D. 2025-Dec-27 00:00:00.0000, 4.343542430144177E+08, 4.550710929682907E+07, 7.115540179379310E+07,
2461043.500000000, A.D. 2026-Jan-03 00:00:00.0000, 4.328775966786337E+08, 5.619192452621265E+07, 7.111918487376800E+07,
2461050.500000000, A.D. 2026-Jan-10 00:00:00.0000, 4.311580462050781E+08, 6.684517438380510E+07, 7.104305573060581E+07,
2461057.500000000, A.D. 2026-Jan-17 00:00:00.0000, 4.291962095650120E+08, 7.746082744177577E+07, 7.092700031940638E+07,
2461064.500000000, A.D. 2026-Jan-24 00:00:00.0000, 4.269928678433585E+08, 8.803286036644042E+07, 7.077103113527349E+07,
2461071.500000000, A.D. 2026-Jan-31 00:00:00.0000, 4.245489653212942E+08, 9.855526319920866E+07, 7.057518732893741E+07,
2461078.500000000, A.D. 2026-Feb-07 00:00:00.0000, 4.218656094035248E+08, 1.090220445258057E+08, 7.033953477355647E+07,
2461085.500000000, A.D. 2026-Feb-14 00:00:00.0000, 4.189440706425059E+08, 1.194272365089787E+08, 7.006416605815159E+07,
2461092.500000000, A.D. 2026-Feb-21 00:00:00.0000, 4.157857832458697E+08, 1.297649003509573E+08, 6.974920041872966E+07,
2461099.500000000, A.D. 2026-Feb-28 00:00:00.0000, 4.123923449795160E+08, 1.400291333287871E+08, 6.939478379992653E+07,
2461106.500000000, A.D. 2026-Mar-07 00:00:00.0000, 4.087655144077281E+08, 1.502140754435386E+08, 6.900108907671894E+07,
2461113.500000000, A.D. 2026-Mar-14 00:00:00.0000, 4.049072082479437E+08, 1.603139133392220E+08, 6.856831599097165E+07,
2461120.500000000, A.D. 2026-Mar-21 00:00:00.0000, 4.008195006215160E+08, 1.703228843773879E+08, 6.809669087482482E+07,
2461127.500000000, A.D. 2026-Mar-28 00:00:00.0000, 3.965046221897375E+08, 1.802352818869893E+08, 6.758646642875665E+07,
2461134.500000000, A.D. 2026-Apr-04 00:00:00.0000, 3.919649585735266E+08, 1.900454606159393E+08, 6.703792153162326E+07,
2461141.500000000, A.D. 2026-Apr-11 00:00:00.0000, 3.872030483352208E+08, 1.997478420158769E+08, 6.645136102958503E+07,
2461148.500000000, A.D. 2026-Apr-18 00:00:00.0000, 3.822215806873124E+08, 2.093369193438964E+08, 6.582711549017833E+07,
2461155.500000000, A.D. 2026-Apr-25 00:00:00.0000, 3.770233929796091E+08, 2.188072625857559E+08, 6.516554091961136E+07,
2461162.500000000, A.D. 2026-May-02 00:00:00.0000, 3.716114680009797E+08, 2.281535231608050E+08, 6.446701843883406E+07,
2461169.500000000, A.D. 2026-May-09 00:00:00.0000, 3.659889312259241E+08, 2.373704383328246E+08, 6.373195390226443E+07,
2461176.500000000, A.D. 2026-May-16 00:00:00.0000, 3.601590483902292E+08, 2.464528354558814E+08, 6.296077743654500E+07,
2461183.500000000, A.D. 2026-May-23 00:00:00.0000, 3.541252234535094E+08, 2.553956370675913E+08, 6.215394297844270E+07,
2461190.500000000, A.D. 2026-May-30 00:00:00.0000, 3.478909948740059E+08, 2.641938671402372E+08, 6.131192802874734E+07,
2461197.500000000, A.D. 2026-Jun-06 00:00:00.0000, 3.414600298848357E+08, 2.728426552109415E+08, 6.043523338526925E+07,
2461204.500000000, A.D. 2026-Jun-13 00:00:00.0000, 3.348361204480208E+08, 2.813372385833896E+08, 5.952438253652741E+07,
2461211.500000000, A.D. 2026-Jun-20 00:00:00.0000, 3.280231803928641E+08, 2.896729655186411E+08, 5.857992100157270E+07,
2461218.500000000, A.D. 2026-Jun-27 00:00:00.0000, 3.210252420470272E+08, 2.978452990683362E+08, 5.760241574455981E+07,
2461225.500000000, A.D. 2026-Jul-04 00:00:00.0000, 3.138464523682680E+08, 3.058498207698466E+08, 5.659245460177942E+07,
2461232.500000000, A.D. 2026-Jul-11 00:00:00.0000, 3.064910688395054E+08, 3.136822340662941E+08, 5.555064568817542E+07,
2461239.500000000, A.D. 2026-Jul-18 00:00:00.0000, 2.989634552288684E+08, 3.213383674724092E+08, 5.447761677805679E+07,
2461246.500000000, A.D. 2026-Jul-25 00:00:00.0000, 2.912680772482280E+08, 3.288141774847074E+08, 5.337401465915799E+07,
2461253.500000000, A.D. 2026-Aug-01 00:00:00.0000, 2.834094981674808E+08, 3.361057511842861E+08, 5.224050445297568E+07,
2461260.500000000, A.D. 2026-Aug-08 00:00:00.0000, 2.753923746089201E+08, 3.432093084936720E+08, 5.107776888017777E+07,
2461267.500000000, A.D. 2026-Aug-15 00:00:00.0000, 2.672214529469495E+08, 3.501212045361155E+08, 4.988650747135802E+07,
2461274.500000000, A.D. 2026-Aug-22 00:00:00.0000, 2.589015655622295E+08, 3.568379333154935E+08, 4.866743589389744E+07,
2461281.500000000, A.D. 2026-Aug-29 00:00:00.0000, 2.504376246682986E+08, 3.633561313407297E+08, 4.742128549369788E+07,
$$EOE